NORAD_CAT_ID,OBJECT_NAME,OBJECT_TYPE,EPOCH,MEAN_MOTION,ECCENTRICITY,INCLINATION,RA_OF_ASC_NODE,ARG_OF_PERICENTER,MEAN_ANOMALY,BSTAR,MEAN_MOTION_DOT,MEAN_MOTION_DDOT,TLE_LINE0,TLE_LINE1,TLE_LINE2,SEMIMAJOR_AXIS,PERIOD,APOGEE,PERIGEE,DECAYED
52840.0,STARLINK-4049,PAYLOAD,2024-05-25 03:41:36,15.08037556,0.00015,53.2173,87.9781,69.9329,290.1825,-0.006314,-0.00097267,0.0,0 STARLINK-4049,1 52840U 22062L   24146.15389610 -.00097267  00000-0 -63140-2 0  9990,2 52840  53.2173  87.9781 0001500  69.9329 290.1825 15.08037556107618,6920.334,95.488,543.237,541.161,0.0
52840.0,STARLINK-4049,PAYLOAD,2024-05-25 14:00:01,15.07202766,0.000139,53.2165,86.0534,95.975,77.1064,-0.00054559,-8.578e-05,0.0,0 STARLINK-4049,1 52840U 22062L   24146.58334491 -.00008578  00000-0 -54559-3 0  9996,2 52840  53.2165  86.0534 0001390  95.9750  77.1064 15.07202766107680,6922.889,95.541,545.717,543.792,0.0
52840.0,STARLINK-4049,PAYLOAD,2024-05-26 14:00:01,15.071846,0.0001371,53.2167,81.5758,87.0912,114.8596,0.0014886,0.00022436,0.0,0 STARLINK-4049,1 52840U 22062L   24147.58334491  .00022436  00000-0  14886-2 0  9992,2 52840  53.2167  81.5758 0001371  87.0912 114.8596 15.07184600  5740,6922.945,95.542,545.759,543.861,0.0
52840.0,STARLINK-4049,PAYLOAD,2024-05-26 22:00:00,15.07220773,0.0001463,53.2168,80.0836,89.2653,122.2906,-0.00086888,-0.0001349,0.0,0 STARLINK-4049,1 52840U 22062L   24147.91667824 -.00013490  00000-0 -86888-3 0  9992,2 52840  53.2168  80.0836 0001463  89.2653 122.2906 15.07220773107888,6922.834,95.54,545.712,543.686,0.0
52840.0,STARLINK-4049,PAYLOAD,2024-05-27 14:00:01,15.07188769,0.0001373,53.2171,77.0981,93.6723,137.1579,0.0021388,0.00032408,0.0,0 STARLINK-4049,1 52840U 22062L   24148.58334491  .00032408  00000-0  21388-2 0  9998,2 52840  53.2171  77.0981 0001373  93.6723 137.1579 15.07188769  5848,6922.932,95.542,545.748,543.847,0.0
52840.0,STARLINK-4049,PAYLOAD,2024-05-27 22:00:00,15.07239028,0.0001444,53.2172,75.606,92.6272,147.8209,-0.0022624,-0.00034587,0.0,0 STARLINK-4049,1 52840U 22062L   24148.91667824 -.00034587  00000-0 -22624-2 0  9990,2 52840  53.2172  75.6060 0001444  92.6272 147.8209 15.07239028  5841,6922.778,95.539,545.643,543.644,0.0
52840.0,STARLINK-4049,PAYLOAD,2024-05-28 06:00:00,15.07180464,0.0001393,53.2171,74.1146,79.7267,170.3877,0.002119,0.00032097,0.0,0 STARLINK-4049,1 52840U 22062L   24149.25001157  .00032097  00000-0  21190-2 0  9998,2 52840  53.2171  74.1146 0001393  79.7267 170.3877 15.07180464108083,6922.958,95.543,545.787,543.858,0.0
52840.0,STARLINK-4049,PAYLOAD,2024-05-28 14:00:01,15.07183367,0.0001324,53.2173,72.6202,88.2166,171.5186,0.0026216,0.00039824,0.0,0 STARLINK-4049,1 52840U 22062L   24149.58334491  .00039824  00000-0  26216-2 0  9993,2 52840  53.2173  72.6202 0001324  88.2166 171.5186 15.07183367  5940,6922.949,95.542,545.73,543.897,0.0
52840.0,STARLINK-4049,PAYLOAD,2024-05-28 22:00:01,15.07238325,0.0001373,53.2174,71.1282,90.4244,178.9848,-0.0031311,-0.0004767,0.0,0 STARLINK-4049,1 52840U 22062L   24149.91668981 -.00047670  00000-0 -31311-2 0  9996,2 52840  53.2174  71.1282 0001373  90.4244 178.9848 15.07238325  5793,6922.78,95.539,545.596,543.695,0.0
52840.0,STARLINK-4049,PAYLOAD,2024-05-29 01:35:04,15.07205756,0.0001453,53.2185,70.4557,103.2382,256.8771,2.0949e-05,3.6e-07,0.0,0 STARLINK-4049,1 52840U 22062L   24150.06601871  .00000036  00000-0  20949-4 0  9999,2 52840  53.2185  70.4557 0001453 103.2382 256.8771 15.07205756108200,6922.88,95.541,545.751,543.739,0.0
52840.0,STARLINK-4049,PAYLOAD,2024-05-29 22:16:25,15.07205461,0.0001427,53.219,66.5999,97.7234,262.392,-6.3894e-06,-3.81e-06,0.0,0 STARLINK-4049,1 52840U 22062L   24150.92807631 -.00000381  00000-0 -63894-5 0  9998,2 52840  53.2190  66.5999 0001427  97.7234 262.3920 15.07205461107846,6922.881,95.541,545.734,543.758,0.0
52840.0,STARLINK-4049,PAYLOAD,2024-05-30 04:38:22,15.07208424,0.0001514,53.2186,65.4103,110.1333,249.9821,3.8977e-05,3.1e-06,0.0,0 STARLINK-4049,1 52840U 22062L   24151.19332011  .00000310  00000-0  38977-4 0  9996,2 52840  53.2186  65.4103 0001514 110.1333 249.9821 15.07208424108375,6922.872,95.541,545.785,543.689,0.0
52840.0,STARLINK-4049,PAYLOAD,2024-05-30 22:08:45,15.07207074,0.0001463,53.2188,62.1439,109.944,250.1709,-6.3152e-06,-3.8e-06,0.0,0 STARLINK-4049,1 52840U 22062L   24151.92275443 -.00000380  00000-0 -63152-5 0  9995,2 52840  53.2188  62.1439 0001463 109.9440 250.1709 15.07207074107997,6922.876,95.541,545.754,543.728,0.0
52840.0,STARLINK-4049,PAYLOAD,2024-05-31 02:55:13,15.0720876,0.0001423,53.219,61.2527,95.579,264.5364,7.586e-05,8.72e-06,0.0,0 STARLINK-4049,1 52840U 22062L   24152.12168738  .00000872  00000-0  75860-4 0  9998,2 52840  53.2190  61.2527 0001423  95.5790 264.5364 15.07208760108026,6922.871,95.541,545.721,543.751,0.0
52840.0,STARLINK-4049,PAYLOAD,2024-05-31 22:01:05,15.07209043,0.0001722,53.2208,57.691,86.7793,273.3395,0.00010113,1.256e-05,0.0,0 STARLINK-4049,1 52840U 22062L   24152.91743031  .00001256  00000-0  10113-3 0  9996,2 52840  53.2208  57.6910 0001722  86.7793 273.3395 15.07209043108148,6922.87,95.541,545.927,543.543,0.0
52840.0,STARLINK-4049,PAYLOAD,2024-06-01 02:47:33,15.07215721,0.0001395,53.2193,56.7992,84.0751,276.04,8.3882e-05,9.94e-06,0.0,0 STARLINK-4049,1 52840U 22062L   24153.11636099  .00000994  00000-0  83882-4 0  9996,2 52840  53.2193  56.7992 0001395  84.0751 276.0400 15.07215721108666,6922.85,95.54,545.68,543.749,0.0
52840.0,STARLINK-4049,PAYLOAD,2024-06-01 10:45:01,15.07206027,0.00015,53.2192,55.3152,80.1574,279.9587,-2.1846e-05,-6.16e-06,0.0,0 STARLINK-4049,1 52840U 22062L   24153.44792961 -.00000616  00000-0 -21846-4 0  9998,2 52840  53.2192  55.3152 0001500  80.1574 279.9587 15.07206027108719,6922.879,95.541,545.783,543.706,0.0
52840.0,STARLINK-4049,PAYLOAD,2024-06-01 21:53:27,15.0719593,0.0001729,53.2198,53.2351,78.7159,281.4026,3.0295e-06,-2.37e-06,0.0,0 STARLINK-4049,1 52840U 22062L   24153.91212077 -.00000237  00000-0  30295-5 0  9992,2 52840  53.2198  53.2351 0001729  78.7159 281.4026 15.07195930108781,6922.91,95.542,545.972,543.578,0.0
52840.0,STARLINK-4049,PAYLOAD,2024-06-02 02:39:49,15.07278364,0.0001804,53.2203,52.3437,83.0753,277.0443,0.00066583,9.886e-05,0.0,0 STARLINK-4049,1 52840U 22062L   24154.11098620  .00009886  00000-0  66583-3 0  9996,2 52840  53.2203  52.3437 0001804  83.0753 277.0443 15.07278364108817,6922.658,95.536,545.772,543.274,0.0
52840.0,STARLINK-4049,PAYLOAD,2024-06-02 10:37:06,15.0737688,9.62e-05,53.2204,50.8583,111.0895,249.02,0.0014417,0.00021832,0.0,0 STARLINK-4049,1 52840U 22062L   24154.44243318  .00021832  00000-0  14417-2 0  9991,2 52840  53.2204  50.8583 0000962 111.0895 249.0200 15.07376880108863,6922.356,95.53,544.887,543.555,0.0
52840.0,STARLINK-4049,PAYLOAD,2024-06-02 23:20:34,15.07618374,0.000154,53.2199,48.4818,62.2297,297.8851,0.0031911,0.00049181,0.0,0 STARLINK-4049,1 52840U 22062L   24154.97262714  .00049181  00000-0  31911-2 0  9995,2 52840  53.2199  48.4818 0001540  62.2297 297.8851 15.07618374108451,6921.617,95.515,544.548,542.416,0.0
52840.0,STARLINK-4049,PAYLOAD,2024-06-03 04:06:40,15.07863,0.0001199,53.2192,47.5891,63.0631,297.0483,0.0050372,0.00078645,0.0,0 STARLINK-4049,1 52840U 22062L   24155.17130017  .00078645  00000-0  50372-2 0  9997,2 52840  53.2192  47.5891 0001199  63.0631 297.0483 15.07863000108974,6920.868,95.499,543.563,541.903,0.0
52840.0,STARLINK-4049,PAYLOAD,2024-06-03 10:28:16,15.08022718,0.0001115,53.2193,46.3996,98.3152,261.7966,0.0060295,0.00094822,0.0,0 STARLINK-4049,1 52840U 22062L   24155.43630653  .00094822  00000-0  60295-2 0  9997,2 52840  53.2193  46.3996 0001115  98.3152 261.7966 15.08022718109019,6920.38,95.489,543.016,541.473,0.0
52840.0,STARLINK-4049,PAYLOAD,2024-06-03 22:00:00,15.08837084,0.0001457,53.2179,44.2486,73.4612,15.6332,-0.0015293,-0.00024542,0.0,0 STARLINK-4049,1 52840U 22062L   24155.91667824 -.00024542  00000-0 -15293-2 0  9992,2 52840  53.2179  44.2486 0001457  73.4612  15.6332 15.08837084109088,6917.889,95.438,540.762,538.746,0.0
52840.0,STARLINK-4049,PAYLOAD,2024-06-04 14:00:01,15.08814062,0.0001177,53.2181,41.2545,89.1421,23.1372,0.004352,0.00069609,0.0,0 STARLINK-4049,1 52840U 22062L   24156.58334491  .00069609  00000-0  43520-2 0  9992,2 52840  53.2181  41.2545 0001177  89.1421  23.1372 15.08814062109185,6917.96,95.439,540.639,539.01,0.0
52840.0,STARLINK-4049,PAYLOAD,2024-06-04 16:00:00,15.08843063,0.0001227,53.2182,40.8805,92.39,112.7827,0.0029711,0.00047319,0.0,0 STARLINK-4049,1 52840U 22062L   24156.66667824  .00047319  00000-0  29711-2 0  9990,2 52840  53.2182  40.8805 0001227  92.3900 112.7827 15.08843063  5812,6917.871,95.437,540.585,538.887,0.0
52840.0,STARLINK-4049,PAYLOAD,2024-06-05 00:00:00,15.08873257,0.00012,53.218,39.3859,88.8127,127.9822,-0.0059038,-0.00093117,0.0,0 STARLINK-4049,1 52840U 22062L   24157.00001157 -.00093117  00000-0 -59038-2 0  9994,2 52840  53.2180  39.3859 0001200  88.8127 127.9822 15.08873257  5860,6917.779,95.435,540.474,538.814,0.0
52840.0,STARLINK-4049,PAYLOAD,2024-06-05 06:00:00,15.08811948,0.0001118,53.2176,38.2633,93.1865,42.3118,0.001087,0.00017041,0.0,0 STARLINK-4049,1 52840U 22062L   24157.25001157  .00017041  00000-0  10870-2 0  9992,2 52840  53.2176  38.2633 0001118  93.1865  42.3118 15.08811948109298,6917.966,95.439,540.605,539.058,0.0
52840.0,STARLINK-4049,PAYLOAD,2024-06-05 14:00:01,15.08805134,0.000116,53.2177,36.7656,108.4042,38.6605,0.0041262,0.00065932,0.0,0 STARLINK-4049,1 52840U 22062L   24157.58334491  .00065932  00000-0  41262-2 0  9999,2 52840  53.2177  36.7656 0001160 108.4042  38.6605 15.08805134  5745,6917.987,95.44,540.654,539.049,0.0
52840.0,STARLINK-4049,PAYLOAD,2024-06-05 22:00:01,15.08879585,0.0001194,53.2176,35.2709,96.3304,62.3744,-0.0052604,-0.0008313,0.0,0 STARLINK-4049,1 52840U 22062L   24157.91668981 -.00083130  00000-0 -52604-2 0  9994,2 52840  53.2176  35.2709 0001194  96.3304  62.3744 15.08879585  5794,6917.759,95.435,540.45,538.798,0.0
